MOLNIYA 2-9             
1 07276U 74026A   22043.55306865  .00000126  00000+0  00000+0 0  9997
2 07276  64.2638 244.9318 6544682 282.8610  15.9496  2.45095727246328
MOLNIYA 2-10            
1 07376U 74056A   22045.59478510 -.00001041  00000+0  00000+0 0  9992
2 07376  63.9463 107.4444 6698167 287.7444  13.4580  2.01134279347889
MOLNIYA 1-S             
1 07392U 74060A   22046.67742758 -.00000332  00000+0  00000+0 0  9995
2 07392   5.4212 284.7969 0010002 201.0670  10.1111  1.00251700118305
MOLNIYA 1-29            
1 07780U 75036A   22044.56601316  .00000190  00000+0 -83290-1 0  9996
2 07780  63.3697 229.4831 7005071 289.3820  11.1499  2.00600068343130
MOLNIYA 2-14            
1 08195U 75081A   22046.44749373 -.00000726  00000+0  00000+0 0  9993
2 08195  63.3803 201.3750 6889058 293.6345  10.7224  2.02103938340429
MOLNIYA 1-32            
1 08601U 76006A   22041.54223154 -.00000071  00000+0 -25045-2 0  9996
2 08601  63.3858 315.8224 7329417 283.3241  10.8683  2.00096266 50126
MOLNIYA 1-36            
1 09880U 77021A   22045.78298022  .00001416  00000+0  55582-4 0  9993
2 09880  63.2379 285.5818 7280417 289.3499   9.8327  2.00417236226900
MOLNIYA 3-8             
1 10455U 77105A   22045.00451437  .00000891  00000+0  38132-3 0  9999
2 10455  63.0635  17.1309 7393959 281.5646  10.7871  2.00461114324662
MOLNIYA 1-40            
1 10925U 78055A   22046.08496995 -.00000191  00000+0  00000+0 0  9996
2 10925  63.0339  65.6793 7232200 280.2233  12.0649  2.00518286320228
MOLNIYA 3-10            
1 11057U 78095A   22046.83784810 -.00000178  00000+0 -68823-3 0  9993
2 11057  62.9654  84.4276 5810371 308.9105  12.2265  4.09841467378740
MOLNIYA 3-13            
1 11896U 80063A   22046.33951587  .00000294  00000+0  00000+0 0  9990
2 11896  62.6239 152.8573 7055438 276.1429  14.4779  2.00561689304645
MOLNIYA 1-49            
1 12156U 81009A   22046.18152014  .00001106  00000+0  53583-3 0  9993
2 12156  61.7167 183.8969 7208527 260.5019  18.8770  2.05692517219003
MOLNIYA 1-52            
1 13012U 81123A   22046.69036062 -.00000923  00000+0 -87306-2 0  9999
2 13012  62.1758 297.1614 7282296 253.0419  21.6968  2.00845430294203
MOLNIYA 1-53            
1 13070U 82015A   22046.15451901  .00001505  00000+0 -23109-2 0  9995
2 13070  62.5724 229.8449 7132299 282.2758  12.1477  2.00658297292806
MOLNIYA 3-20            
1 13875U 83015A   22046.85509717 -.00001457  00000+0 -36828-3 0  9995
2 13875  63.0322  12.0114 7391507 257.0915  18.7285  2.00673897221314
MOLNIYA 1-56            
1 13890U 83019A   22045.13609358  .00001584  00000+0  49955-3 0  9992
2 13890  63.0591  37.8883 7420374 263.0580  15.9932  1.99902008284130
MOLNIYA 1-62            
1 15214U 84089A   22046.20997242  .00019067  96455-6  11056-2 0  9994
2 15214  62.8281  37.6940 7535519 270.1197  12.7696  1.99947798241835
MOLNIYA 1-63            
1 15429U 84124A   22046.48721225  .00001123  00000+0  00000+0 0  9990
2 15429  63.6574 179.2786 6575425 260.8188  25.8728  2.00393124272356
MOLNIYA 3-24            
1 15738U 85040A   22046.10928282 -.00000057  00000+0  00000+0 0  9998
2 15738  63.7412 105.0754 6741025 247.6647  31.3027  2.55628935300747
MOLNIYA 3-27            
1 16393U 85117A   22046.28605833 -.00000062  00000+0  00000+0 0  9990
2 16393  64.4940  97.0748 6900701 249.6095  28.0188  2.12398733271582
MOLNIYA 1-69            
1 17078U 86089A   22046.38701477 -.00000774  00000+0  00000+0 0  9992
2 17078  64.0599 198.0822 6604328 259.6694  25.2343  2.00939617258379
MOLNIYA 3-31            
1 17328U 87008A   22046.29033841 -.00000226  00000+0  00000+0 0  9997
2 17328  63.7411 142.8124 6932117 254.7958  24.5107  2.00578106253419
MOLNIYA 1-71            
1 18946U 88017A   22044.81940386  .00000403  00000+0  00000+0 0  9998
2 18946  63.4504 138.7367 7047992 256.9751  22.1211  2.00602060248571
MOLNIYA 1-75            
1 19807U 89014A   22044.93869071  .00000848  00000+0  00000+0 0  9990
2 19807  64.1391 298.5827 6928105 267.7941  18.5101  2.00473379241524
MOLNIYA 1-80            
1 21118U 91012A   22041.94611002 -.00000390  00000+0  00000+0 0  9999
2 21118  65.1418 346.9305 6835649 279.3431  15.1231  2.05250039228382
MOLNIYA 3-40            
1 21196U 91022A   22044.69413505 -.00000534  00000+0  00000+0 0  9999
2 21196  65.1123 340.1211 6867657 276.0166  16.0197  2.03000359227179
MOLNIYA 1-81            
1 21426U 91043A   22045.91098910  .00000012  00000+0  00000+0 0  9993
2 21426  64.1900 359.7123 7114608 267.8484  16.9238  2.00605981224708
MOLNIYA 3-41            
1 21706U 91065A   22045.57846446  .00001182  00000+0  00000+0 0  9994
2 21706  64.1120 179.1132 6763728 257.3537  24.8725  2.04346412224357
MOLNIYA 3-42            
1 22178U 92067A   22046.31188869  .00000173  00000+0  00000+0 0  9991
2 22178  64.6820 228.9317 6469081 269.1004  21.8252  2.20434011 77366
MOLNIYA 1-86            
1 22671U 93035A   22046.78293227  .00000074  00000+0  18490-3 0  9997
2 22671  63.1357 307.4545 4831678   5.2001 358.4577  5.62646994345459
MOLNIYA 1-87            
1 22949U 93079A   22041.37777390  .00001231  00000+0  00000+0 0  9991
2 22949  63.7469 106.6296 6831969 285.2609  13.3134  2.02860329 72351
MOLNIYA 1-88            
1 23420U 94081A   22046.52017900  .00000075  00000+0  00000+0 0  9991
2 23420  64.2790 222.7728 5847369 285.3069  19.9546  3.34495647242867
MOLNIYA 3-47            
1 23642U 95042A   22044.97569700 -.00000470  00000+0  00000+0 0  9992
2 23642  63.8037  88.4966 6888833 285.3755  12.9015  2.01931556194527
MOLNIYA 1-90            
1 24960U 97054A   22046.65920221  .00000034  00000+0 -18307-2 0  9995
2 24960  63.6298 190.4248 6163277 299.5961  13.0746  3.18686781204126
MOLNIYA 1-91            
1 25485U 98054A   22045.34547882  .00000148  00000+0  22925-2 0  9998
2 25485  62.9809 169.3477 6805647 291.8721  14.3293  2.36443177175476
MOLNIYA 3-50            
1 25847U 99036A   22046.88376153 -.00000224  00000+0 -35283-3 0  9991
2 25847  63.0420 353.5668 7425787 281.2107  10.7747  2.00604394165679
